#dV2023  1  4 10  0  0.00000000    1682       CTS   FIT  GFZ
## 2243 295200.00000000    30.00000000 59948 0.4166666666667
+    1   L64  0  0  0  0  0  0  0  0  0  0  0  0  0  0  0  0
+          0  0  0  0  0  0  0  0  0  0  0  0  0  0  0  0  0
+          0  0  0  0  0  0  0  0  0  0  0  0  0  0  0  0  0
+          0  0  0  0  0  0  0  0  0  0  0  0  0  0  0  0  0
+          0  0  0  0  0  0  0  0  0  0  0  0  0  0  0  0  0
++         0  0  0  0  0  0  0  0  0  0  0  0  0  0  0  0  0
++         0  0  0  0  0  0  0  0  0  0  0  0  0  0  0  0  0
++         0  0  0  0  0  0  0  0  0  0  0  0  0  0  0  0  0
++         0  0  0  0  0  0  0  0  0  0  0  0  0  0  0  0  0
++         0  0  0  0  0  0  0  0  0  0  0  0  0  0  0  0  0
%c L  cc GPS ccc cccc cccc cccc cccc ccccc ccccc ccccc ccccc
%c cc cc ccc ccc cccc cccc cccc cccc ccccc ccccc ccccc ccccc
%f  0.0000000  0.000000000  0.00000000000  0.000000000000000
%f  0.0000000  0.000000000  0.00000000000  0.000000000000000
%i    0    0    0    0      0      0      0      0         0
%i    0    0    0    0      0      0      0      0         0
/* CCCCCCCCCCCCCCCCCCCCCCCCCCCCCCCCCCCCCCCCCCCCCCCCCCCCCCCCCCCCCCCCCCCCCCCCCCCCC
/* C                             GFZ RSO-ORBIT                                 C
/* C DOI: https://doi.org/10.5880/GFZ_ORBIT/RSO/L64_G_v02                      C
/* C                                                                           C
/* C DORIS        RMS: not applicable                                          C
/* C GNSS-E Code  RMS: not applicable                                          C
/* C GNSS-E Phase RMS: not applicable                                          C
/* C GNSS-G Code  RMS:  51.486 [cm]   Obs.acc.:     14042 Obs.eli.:      1336  C
/* C GNSS-G Phase RMS:   3.960 [mm]   Obs.acc.:     14042 Obs.eli.:      1336  C
/* C SLR          RMS:   3.772 [cm]   Obs.acc.:        62 Obs.eli.:         0  C
/* C                                                                           C
/* CCCCCCCCCCCCCCCCCCCCCCCCCCCCCCCCCCCCCCCCCCCCCCCCCCCCCCCCCCCCCCCCCCCCCCCCCCCCC
*  2023  1  4 14 40 30.00000000
PL64   3949.451031   4178.611179  -3756.157516  19043.424215
VL64  30488.616860  28494.555490  63784.553319 999999.999999
*  2023  1  4 14 41  0.00000000
PL64   4038.907509   4261.579827  -3562.755097  19043.883550
VL64  29142.277502  26813.719636  65138.517901 999999.999999
*  2023  1  4 14 41 30.00000000
PL64   4124.264841   4339.469574  -3365.398418  19044.342676
VL64  27756.085262  25108.961967  66420.475547 999999.999999
*  2023  1  4 14 42  0.00000000
PL64   4205.405593   4412.211727  -3164.305716  19044.801874
VL64  26331.466299  23382.333273  67628.963417 999999.999999
*  2023  1  4 14 42 30.00000000
PL64   4282.216690   4479.743772  -2959.699492  19045.261200
VL64  24869.899919  21635.903461  68762.600231 999999.999999
*  2023  1  4 14 43  0.00000000
PL64   4354.589574   4542.009434  -2751.806268  19045.720548
VL64  23372.917040  19871.760165  69820.086155 999999.999999
*  2023  1  4 14 43 30.00000000
PL64   4422.420356   4598.958724  -2540.856345  19046.180178
VL64  21842.100191  18092.008338  70800.204559 999999.999999
*  2023  1  4 14 44  0.00000000
PL64   4485.609973   4650.547995  -2327.083541  19046.639585
VL64  20279.082674  16298.767557  71701.825850 999999.999999
*  2023  1  4 14 44 30.00000000
PL64   4544.064332   4696.739971  -2110.724931  19047.099050
VL64  18685.546733  14494.168046  72523.909487 999999.999999
*  2023  1  4 14 45  0.00000000
PL64   4597.694463   4737.503782  -1892.020574  19047.558265
VL64  17063.221872  12680.348071  73265.506265 999999.999999
*  2023  1  4 14 45 30.00000000
PL64   4646.416646   4772.814981  -1671.213238  19048.017675
VL64  15413.880911  10859.449680  73925.761362 999999.999999
*  2023  1  4 14 46  0.00000000
PL64   4690.152543   4802.655544  -1448.548113  19048.477156
VL64  13739.336132   9033.614554  74503.912840 999999.999999
*  2023  1  4 14 46 30.00000000
PL64   4728.829309   4827.013873  -1224.272538  19048.936750
VL64  12041.438678   7204.984330  74999.290877 999999.999999
*  2023  1  4 14 47  0.00000000
PL64   4762.379710   4845.884794   -998.635718  19049.396529
VL64  10322.076958   5375.698916  75411.321308 999999.999999
*  2023  1  4 14 47 30.00000000
PL64   4790.742228   4859.269545   -771.888438  19049.855998
VL64   8583.173386   3547.891388  75739.526773 999999.999999
*  2023  1  4 14 48  0.00000000
PL64   4813.861161   4867.175744   -544.282767  19050.315263
VL64   6826.682176   1723.684948  75983.525838 999999.999999
*  2023  1  4 14 48 30.00000000
PL64   4831.686717   4869.617367   -316.071777  19050.774253
VL64   5054.587417    -94.808982  76143.033690 999999.999999
*  2023  1  4 14 49  0.00000000
PL64   4844.175093   4866.614700    -87.509247  19051.233191
VL64   3268.900120  -1905.493503  76217.863261 999999.999999
*  2023  1  4 14 49 30.00000000
PL64   4851.288558   4858.194296    141.150631  19051.692456
VL64   1471.654758  -3706.289122  76207.924675 999999.999999
*  2023  1  4 14 50  0.00000000
PL64   4852.995519   4844.388916    369.653536  19052.151631
VL64   -335.092327  -5495.134945  76113.224011 999999.999999
*  2023  1  4 14 50 30.00000000
PL64   4849.270580   4825.237477    597.745313  19052.610856
VL64  -2149.263624  -7269.990486  75933.865176 999999.999999
*  2023  1  4 14 51  0.00000000
PL64   4840.094607   4800.784979    825.172269  19053.070209
VL64  -3968.764248  -9028.840776  75670.051136 999999.999999
*  2023  1  4 14 51 30.00000000
PL64   4825.454773   4771.082425   1051.681461  19053.529676
VL64  -5791.485299 -10769.699237  75322.080721 999999.999999
*  2023  1  4 14 52  0.00000000
PL64   4805.344597   4736.186735   1277.020988  19053.988761
VL64  -7615.304367 -12490.607479  74890.348850 999999.999999
*  2023  1  4 14 52 30.00000000
PL64   4779.763981   4696.160659   1500.940283  19054.447946
VL64  -9438.089035 -14189.638783  74375.349311 999999.999999
*  2023  1  4 14 53  0.00000000
PL64   4748.719235   4651.072672   1723.190404  19054.907329
VL64 -11257.700925 -15864.902256  73777.672785 999999.999999
*  2023  1  4 14 53 30.00000000
PL64   4712.223091   4600.996868   1943.524326  19055.366887
VL64 -13071.997150 -17514.544469  73098.005749 999999.999999
*  2023  1  4 14 54  0.00000000
PL64   4670.294712   4546.012841   2161.697228  19055.826196
VL64 -14878.834549 -19136.752127  72337.131171 999999.999999
*  2023  1  4 14 54 30.00000000
PL64   4622.959681   4486.205562   2377.466779  19056.285343
VL64 -16676.075322 -20729.754541  71495.925607 999999.999999
*  2023  1  4 14 55  0.00000000
PL64   4570.249987   4421.665247   2590.593414  19056.744727
VL64 -18461.589106 -22291.824750  70575.355205 999999.999999
*  2023  1  4 14 55 30.00000000
PL64   4512.203997   4352.487229   2800.840597  19057.204379
VL64 -20233.252457 -23821.280530  69576.474353 999999.999999
*  2023  1  4 14 56  0.00000000
PL64   4448.866438   4278.771816   3007.975090  19057.664676
VL64 -21988.950224 -25316.486503  68500.427058 999999.999999
*  2023  1  4 14 56 30.00000000
PL64   4380.288364   4200.624147   3211.767223  19058.124373
VL64 -23726.580454 -26775.857480  67348.446712 999999.999999
*  2023  1  4 14 57  0.00000000
PL64   4306.527108   4118.154040   3411.991154  19058.584064
VL64 -25444.059095 -28197.861321  66121.852974 999999.999999
*  2023  1  4 14 57 30.00000000
PL64   4227.646225   4031.475825   3608.425127  19059.044095
VL64 -27139.322902 -29581.020957  64822.047524 999999.999999
*  2023  1  4 14 58  0.00000000
PL64   4143.715427   3940.708181   3800.851705  19059.504876
VL64 -28810.330579 -30923.914908  63450.509611 999999.999999
*  2023  1  4 14 58 30.00000000
PL64   4054.810518   3845.973969   3989.058004  19059.964968
VL64 -30455.061901 -32225.176818  62008.794219 999999.999999
*  2023  1  4 14 59  0.00000000
PL64   3961.013332   3747.400066   4172.835922  19060.425301
VL64 -32071.517714 -33483.495340  60498.533606 999999.999999
*  2023  1  4 14 59 30.00000000
PL64   3862.411663   3645.117199   4351.982370  19060.885247
VL64 -33657.723754 -34697.614259  58921.439910 999999.999999
*  2023  1  4 15  0  0.00000000
PL64   3759.099183   3539.259780   4526.299518  19061.344655
VL64 -35211.737872 -35866.335191  57279.305664 999999.999999
*  2023  1  4 15  0 30.00000000
PL64   3651.175333   3429.965723   4695.595029  19061.804007
VL64 -36731.655906 -36988.523493  55573.998644 999999.999999
*  2023  1  4 15  1  0.00000000
PL64   3538.745209   3317.376242   4859.682270  19062.263525
VL64 -38215.613925 -38063.111568  53807.453435 999999.999999
*  2023  1  4 15  1 30.00000000
PL64   3421.919434   3201.635658   5018.380504  19062.723093
VL64 -39661.788391 -39089.097440  51981.664430 999999.999999
*  2023  1  4 15  2  0.00000000
PL64   3300.814047   3082.891201   5171.515063  19063.182506
VL64 -41068.395034 -40065.541818  50098.683696 999999.999999
*  2023  1  4 15  2 30.00000000
PL64   3175.550378   2961.292828   5318.917523  19063.641733
VL64 -42433.689547 -40991.566879  48160.622236 999999.999999
*  2023  1  4 15  3  0.00000000
PL64   3046.254926   2836.993036   5460.425884  19064.100889
VL64 -43755.969580 -41866.357897  46169.649805 999999.999999
*  2023  1  4 15  3 30.00000000
PL64   2913.059235   2710.146666   5595.884736  19064.560000
VL64 -45033.576805 -42689.165466  44127.992931 999999.999999
*  2023  1  4 15  4  0.00000000
PL64   2776.099751   2580.910712   5725.145435  19065.019004
VL64 -46264.899933 -43459.306383  42037.932040 999999.999999
*  2023  1  4 15  4 30.00000000
PL64   2635.517683   2449.444114   5848.066254  19065.478010
VL64 -47448.377285 -44176.163581  39901.798451 999999.999999
*  2023  1  4 15  5  0.00000000
PL64   2491.458845   2315.907567   5964.512531  19065.937262
VL64 -48582.498779 -44839.186496  37721.971652 999999.999999
*  2023  1  4 15  5 30.00000000
PL64   2344.073504   2180.463315   6074.356814  19066.396434
VL64 -49665.807795 -45447.891640  35500.875933 999999.999999
EOF
